H1 CPF 01  gfz 2021 07 20 00  7011 terrasarx 
H2 0702601  6201 31698    2021 07 20 00 59 42 2021 07 25 00 00 42   120 1 1  0 0 0
H9
10 0 59418  75582.000000  0    4600625.499  -3925452.294  -3307831.258
10 0 59418  75702.000000  0    4763569.030  -4314937.998  -2489276.514
10 0 59418  75822.000000  0    4837277.856  -4631258.278  -1627011.062
10 0 59418  75942.000000  0    4821735.111  -4867263.964   -736151.483
10 0 59418  76062.000000  0    4718606.237  -5017226.467    167654.046
10 0 59418  76182.000000  0    4531188.948  -5076973.894   1068507.118
10 0 59418  76302.000000  0    4264330.563  -5043996.854   1950547.678
10 0 59418  76422.000000  0    3924312.386  -4917520.093   2798242.133
10 0 59418  76542.000000  0    3518706.835  -4698539.944   3596664.469
10 0 59418  76662.000000  0    3056209.367  -4389825.103   4331765.584
10 0 59418  76782.000000  0    2546450.351  -3995881.112   4990623.882
10 0 59418  76902.000000  0    1999791.907  -3522880.302   5561672.757
10 0 59418  77022.000000  0    1427114.212  -2978559.297   6034901.871
10 0 59418  77142.000000  0     839595.994  -2372085.693   6402027.594
10 0 59418  77262.000000  0     248494.670  -1713898.978   6656631.548
10 0 59418  77382.000000  0    -335069.568  -1015527.947   6794266.314
10 0 59418  77502.000000  0    -900321.784   -289386.835   6812528.931
10 0 59418  77622.000000  0   -1437030.271    451445.778   6711099.911
10 0 59418  77742.000000  0   -1935691.158   1193461.997   6491748.333
10 0 59418  77862.000000  0   -2387696.609   1922969.913   6158302.908
10 0 59418  77982.000000  0   -2785484.256   2626345.608   5716589.403
10 0 59418  78102.000000  0   -3122665.562   3290288.656   5174335.221
10 0 59418  78222.000000  0   -3394131.945   3902076.186   4541040.649
10 0 59418  78342.000000  0   -3596135.421   4449811.474   3827817.917
10 0 59418  78462.000000  0   -3726342.042   4922661.561   3047199.543
10 0 59418  78582.000000  0   -3783856.631   5311078.535   2212918.333
10 0 59418  78702.000000  0   -3769217.572   5606997.620   1339662.712
10 0 59418  78822.000000  0   -3684362.209   5804008.210    442813.970
10 0 59418  78942.000000  0   -3532564.663   5897495.348   -461831.503
10 0 59418  79062.000000  0   -3318344.963   5884744.698  -1358350.832
10 0 59418  79182.000000  0   -3047352.753   5765007.853  -2230985.462
10 0 59418  79302.000000  0   -2726226.553   5539526.229  -3064425.984
10 0 59418  79422.000000  0   -2362436.567   5211516.166  -3844083.910
10 0 59418  79542.000000  0   -1964114.549   4786114.886  -4556348.264
10 0 59418  79662.000000  0   -1539873.766   4270288.931  -5188818.877
10 0 59418  79782.000000  0   -1098625.508   3672710.980  -5730514.775
10 0 59418  79902.000000  0    -649394.245   3003605.962  -6172056.815
10 0 59418  80022.000000  0    -201135.355   2274568.784  -6505819.573
10 0 59418  80142.000000  0     237439.640   1498360.206  -6726050.785
10 0 59418  80262.000000  0     658027.454    688684.150  -6828961.202
10 0 59418  80382.000000  0    1052886.503   -140050.849  -6812782.988
10 0 59418  80502.000000  0    1414975.737   -972983.465  -6677796.114
10 0 59418  80622.000000  0    1738076.606  -1795059.315  -6426322.618
10 0 59418  80742.000000  0    2016898.001  -2591295.639  -6062691.408
10 0 59418  80862.000000  0    2247162.631  -3347048.872  -5593172.937
10 0 59418  80982.000000  0    2425673.713  -4048283.760  -5025882.652
10 0 59418  81102.000000  0    2550359.863  -4681835.608  -4370649.830
10 0 59418  81222.000000  0    2620297.323  -5235660.047  -3638857.875
10 0 59418  81342.000000  0    2635709.090  -5699069.580  -2843256.592
10 0 59418  81462.000000  0    2597940.939  -6062949.497  -1997745.911
10 0 59418  81582.000000  0    2509414.603  -6319948.134  -1117135.790
10 0 59418  81702.000000  0    2373557.651  -6464635.760   -216884.030
10 0 59418  81822.000000  0    2194711.053  -6493624.888    687181.288
10 0 59418  81942.000000  0    1978018.156  -6405651.814   1579146.770
10 0 59418  82062.000000  0    1729297.217  -6201615.791   2443304.110
10 0 59418  82182.000000  0    1454899.254  -5884572.317   3264435.649
10 0 59418  82302.000000  0    1161557.206  -5459683.864   4028088.915
10 0 59418  82422.000000  0     856229.153  -4934128.808   4720834.788
10 0 59418  82542.000000  0     545939.818  -4316972.646   5330505.568
10 0 59418  82662.000000  0     237623.475  -3619001.739   5846408.432
10 0 59418  82782.000000  0     -62026.272  -2852524.333   6259508.854
10 0 59418  82902.000000  0    -346698.057  -2031146.031   6562581.656
10 0 59418  83022.000000  0    -610592.367  -1169524.875   6750330.740
10 0 59418  83142.000000  0    -848537.274   -283108.069   6819477.225
10 0 59418  83262.000000  0   -1056088.491    612146.082   6768813.777
10 0 59418  83382.000000  0   -1229611.871   1500055.333   6599224.067
10 0 59418  83502.000000  0   -1366346.707   2364505.195   6313668.165
10 0 59418  83622.000000  0   -1464449.776   3189741.182   5917134.274
10 0 59418  83742.000000  0   -1523019.334   3960657.294   5416556.432
10 0 59418  83862.000000  0   -1542097.749   4663075.797   4820699.757
10 0 59418  83982.000000  0   -1522654.142   5284014.778   4140013.094
10 0 59418  84102.000000  0   -1466545.817   5811936.245   3386449.463
10 0 59418  84222.000000  0   -1376460.789   6236969.419   2573258.598
10 0 59418  84342.000000  0   -1255842.397   6551105.758   1714752.868
10 0 59418  84462.000000  0   -1108794.458   6748358.638    826050.618
10 0 59418  84582.000000  0    -939972.131   6824882.989    -77196.287
10 0 59418  84702.000000  0    -754460.747   6779054.452   -979086.003
10 0 59418  84822.000000  0    -557644.966   6611502.536  -1863757.863
10 0 59418  84942.000000  0    -355072.891   6325095.041  -2715680.181
10 0 59418  85062.000000  0    -152319.120   5924878.851  -3519927.236
10 0 59418  85182.000000  0      45150.832   5417980.046  -4262442.332
10 0 59418  85302.000000  0     232111.708   4813464.926  -4930282.299
10 0 59418  85422.000000  0     403701.958   4122165.896  -5511838.178
10 0 59418  85542.000000  0     555536.665   3356476.894  -5997029.338
10 0 59418  85662.000000  0     683806.995   2530122.739  -6377467.944
10 0 59418  85782.000000  0     785364.931   1657908.856  -6646592.156
10 0 59418  85902.000000  0     857792.071    755456.397  -6799768.456
10 0 59418  86022.000000  0     899450.968   -161074.278  -6834363.275
10 0 59418  86142.000000  0     909518.864  -1075267.850  -6749783.123
10 0 59418  86262.000000  0     888002.805  -1970740.801  -6547481.831
10 0 59418  86382.000000  0     835736.953  -2831426.177  -6230938.371
10 0 59419    102.000000  0     754361.734  -3641856.915  -5805606.140
10 0 59419    222.000000  0     646283.877  -4387442.918  -5278827.898
10 0 59419    342.000000  0     514619.958  -5054734.350  -4659719.551
10 0 59419    462.000000  0     363122.783  -5631669.602  -3959024.253
10 0 59419    582.000000  0     196091.910  -6107802.549  -3188935.554
10 0 59419    702.000000  0      18270.253  -6474502.625  -2362892.332
10 0 59419    822.000000  0    -165271.099  -6725124.666  -1495348.507
10 0 59419    942.000000  0    -349257.598  -6855142.315   -601519.142
10 0 59419   1062.000000  0    -528342.333  -6862240.025    302890.682
10 0 59419   1182.000000  0    -697240.303  -6746361.705   1201968.055
10 0 59419   1302.000000  0    -850862.617  -6509715.160   2079880.565
10 0 59419   1422.000000  0    -984446.984  -6156730.129   2921164.739
10 0 59419   1542.000000  0   -1093680.175  -5693970.959   3711007.533
10 0 59419   1662.000000  0   -1174809.736  -5130005.652   4435512.836
10 0 59419   1782.000000  0   -1224743.476  -4475237.702   5081947.635
10 0 59419   1902.000000  0   -1241132.882  -3741705.447   5638966.070
10 0 59419   2022.000000  0   -1222439.796  -2942850.541   6096807.142
10 0 59419   2142.000000  0   -1167983.462  -2093262.309   6447459.505
10 0 59419   2262.000000  0   -1077967.933  -1208407.163   6684794.305
10 0 59419   2382.000000  0    -953490.721   -304344.755   6804667.303
10 0 59419   2502.000000  0    -796532.144    602564.579   6804986.521
10 0 59419   2622.000000  0    -609923.939   1495955.298   6685746.824
10 0 59419   2742.000000  0    -397297.890   2359751.591   6449030.034
10 0 59419   2862.000000  0    -163015.804   3178456.363   6098970.673
10 0 59419   2982.000000  0      87917.631   3937430.261   5641688.334
10 0 59419   3102.000000  0     349957.881   4623156.796   5085186.138
10 0 59419   3222.000000  0     617138.752   5223488.826   4439217.344
10 0 59419   3342.000000  0     883202.516   5727871.976   3715118.000
10 0 59419   3462.000000  0    1141738.353   6127537.086   2925613.203
10 0 59419   3582.000000  0    1386331.185   6415668.060   2084595.223
10 0 59419   3702.000000  0    1610711.066   6587525.179   1206872.276
10 0 59419   3822.000000  0    1808902.381   6640529.049    307901.995
10 0 59419   3942.000000  0    1975368.668   6574300.079   -596488.832
10 0 59419   4062.000000  0    2105148.733   6390654.285  -1490390.874
10 0 59419   4182.000000  0    2193981.441   6093555.841  -2358099.633
10 0 59419   4302.000000  0    2238415.998   5689027.346  -3184397.988
10 0 59419   4422.000000  0    2235904.885   5185019.681  -3954827.902
10 0 59419   4542.000000  0    2184876.948   4591244.459  -4655944.454
10 0 59419   4662.000000  0    2084788.911   3918975.585  -5275546.675
10 0 59419   4782.000000  0    1936155.474   3180825.895  -5802882.374
10 0 59419   4902.000000  0    1740557.312   2390503.592  -6228825.547
10 0 59419   5022.000000  0    1500626.827   1562553.419  -6546022.707
10 0 59419   5142.000000  0    1220013.717    712089.469  -6749008.365
10 0 59419   5262.000000  0     903329.592   -145477.689  -6834290.410
10 0 59419   5382.000000  0     556072.213   -994715.486  -6800403.245
10 0 59419   5502.000000  0     184531.630  -1820440.326  -6647928.572
10 0 59419   5622.000000  0    -204320.109  -2607980.807  -6379486.580
99
